STARLINK-5683           
1 55452U 23015D   23347.76571359  .00001230  00000+0  10610-3 0  9990
2 55452  43.0044  85.2543 0001199 271.4474  88.6231 15.02546670 47863
STARLINK-5684           
1 55453U 23015E   23347.49647776  .00000260  00000+0  34327-4 0  9992
2 55453  43.0037  86.6742 0001216 265.4064  94.6639 15.02539070 47821
STARLINK-5636           
1 55454U 23015F   23347.75683439 -.00002844  00000+0 -19550-3 0  9990
2 55454  43.0047  85.1768 0001273 246.9473 113.1235 15.02550243 47864
STARLINK-5680           
1 55455U 23015G   23347.56961381  .00000968  00000+0  86738-4 0  9991
2 55455  43.0037  86.3629 0001209 268.6151  91.4553 15.02541664 47831
STARLINK-5058           
1 55456U 23015H   23347.75794724  .00001985  00000+0  16194-3 0  9996
2 55456  43.0046  85.1966 0001230 277.6657  82.4046 15.02545274 47689
STARLINK-5682           
1 55457U 23015J   23347.76016585  .00001042  00000+0  92156-4 0  9997
2 55457  43.0043  85.2118 0001206 269.4979  90.5725 15.02544378 47864
STARLINK-5020           
1 55458U 23015K   23347.74573602  .00002267  00000+0  18279-3 0  9997
2 55458  43.0044  85.1012 0001268 279.0956  80.9743 15.02547405 47865
STARLINK-5669           
1 55459U 23015L   23347.55185616  .00001084  00000+0  95315-4 0  9994
2 55459  43.0046  86.2272 0001210 273.7794  86.2910 15.02543627 47830
STARLINK-5678           
1 55460U 23015M   23347.74795509  .00001810  00000+0  14898-3 0  9998
2 55460  43.0047  85.1192 0001226 274.4642  85.6060 15.02548564 47866
STARLINK-5646           
1 55461U 23015N   23347.75461587  .00007575  00000+0  57499-3 0  9994
2 55461  43.0044  85.1703 0001592 287.1323  72.9345 15.02553577 47860
STARLINK-5673           
1 55462U 23015P   23347.73683607  .00004003  00000+0  31101-3 0  9997
2 55462  43.0040  85.0352 0001322 276.0804  83.9888 15.02567671 47862
STARLINK-5677           
1 55463U 23015Q   23347.74240762  .00005430  00000+0  41653-3 0  9998
2 55463  43.0035  85.0774 0001346 272.5463  87.5225 15.02553114 47865
STARLINK-5676           
1 55464U 23015R   23347.72799045  .00000608  00000+0  60049-4 0  9993
2 55464  43.0043  84.9688 0001282 275.6415  84.4281 15.02535527 47863
STARLINK-5674           
1 55465U 23015S   23347.60057340  .00002330  00000+0  18749-3 0  9999
2 55465  43.0036  85.7322 0001179 264.1737  95.8971 15.02544136 47661
STARLINK-5628           
1 55466U 23015T   23347.51967007  .00000520  00000+0  53591-4 0  9994
2 55466  43.0044  85.9854 0001197 269.3964  90.6741 15.02538604 47832
STARLINK-5679           
1 55467U 23015U   23347.74018575  .00002692  00000+0  21423-3 0  9997
2 55467  43.0046  85.0599 0001246 273.7850  86.2850 15.02548870 47861
STARLINK-5672           
1 55468U 23015V   23347.72575913  .00002114  00000+0  17151-3 0  9992
2 55468  43.0047  84.9520 0001200 275.5163  84.5543 15.02544969 47867
STARLINK-5681           
1 55469U 23015W   23347.53187689  .00001480  00000+0  12458-3 0  9991
2 55469  43.0038  86.0784 0001132 271.9949  88.0764 15.02545045 47836
STARLINK-5708           
1 55470U 23015X   23347.52410702  .00001566  00000+0  13095-3 0  9990
2 55470  43.0043  86.0181 0001260 272.4356  87.6342 15.02546902 47835
STARLINK-5711           
1 55471U 23015Y   23347.45652169  .00000496  00000+0  51790-4 0  9994
2 55471  43.0043  86.3710 0001216 272.2762  87.7941 15.02538676 47821
STARLINK-5705           
1 55472U 23015Z   23347.52115286  .00000262  00000+0  34442-4 0  9993
2 55472  43.0048  73.8512 0001179 264.2079  95.8629 15.02539484 47975
STARLINK-5687           
1 55473U 23015AA  23347.58392669  .00000558  00000+0  56390-4 0  9996
2 55473  43.0047  85.6082 0001120 262.7484  97.3231 15.02539178 47849
STARLINK-5689           
1 55474U 23015AB  23347.75768599  .00001445  00000+0  12198-3 0  9998
2 55474  43.0042  98.1829 0001236 268.4446  91.6255 15.02544219 47713
STARLINK-5650           
1 55475U 23015AC  23347.51412056  .00000062  00000+0  19666-4 0  9999
2 55475  43.0048  85.9439 0001178 269.9484  90.1223 15.02538372 47839
STARLINK-5685           
1 55477U 23015AE  23347.51782159  .00000342  00000+0  40368-4 0  9999
2 55477  43.0057  73.8241 0001207 269.6044  90.4660 15.02541683 47972
STARLINK-5691           
1 55478U 23015AF  23347.51449465  .00000910  00000+0  82417-4 0  9992
2 55478  43.0052  73.7941 0001227 279.2581  80.8122 15.02543954 47978
STARLINK-5688           
1 55479U 23015AG  23347.52448236  .00000793  00000+0  73746-4 0  9993
2 55479  43.0046  73.8731 0001173 268.6713  91.3995 15.02540957 47974
STARLINK-5690           
1 55480U 23015AH  23347.55785487  .00001246  00000+0  10949-3 0  9999
2 55480  43.0041  97.4928 0001223 270.8201  89.2501 15.01727800 47707
STARLINK-5694           
1 55481U 23015AJ  23347.62140224  .00001244  00000+0  10716-3 0  9992
2 55481  43.0044  98.8816 0001157 268.5175  91.5535 15.02543313 47699
STARLINK-5693           
1 55482U 23015AK  23347.53161766  .00000950  00000+0  85377-4 0  9996
2 55482  43.0045  99.0671 0001267 272.6216  87.4482 15.02542163 47683
STARLINK-5692           
1 55483U 23015AL  23347.61030494  .00001522  00000+0  12770-3 0  9991
2 55483  43.0034  98.7963 0001252 274.2971  85.7729 15.02542446 47692
STARLINK-5696           
1 55484U 23015AM  23347.73437832  .00001118  00000+0  97832-4 0  9996
2 55484  43.0046  98.0078 0001234 271.4067  88.6634 15.02544764 47716
STARLINK-5695           
1 55485U 23015AN  23347.55048648  .00000993  00000+0  88537-4 0  9992
2 55485  43.0042  99.2066 0001322 267.1004  92.9687 15.02542561 47689
STARLINK-5704           
1 55486U 23015AP  23347.53117942  .00001058  00000+0  95248-4 0  9995
2 55486  43.0038  99.0181 0001188 263.6562  96.4144 15.01727339 47685
STARLINK-5701           
1 55487U 23015AQ  23347.55159933  .00002722  00000+0  21651-3 0  9999
2 55487  43.0049  99.2159 0001214 271.7126  88.3577 15.02532820 47681
STARLINK-5706           
1 55488U 23015AR  23347.52496203  .00000174  00000+0  27922-4 0  9998
2 55488  43.0043  99.0102 0001203 270.5461  89.5244 15.02540318 47684
STARLINK-5371           
1 55489U 23015AS  23347.54050131  .00001108  00000+0  97101-4 0  9991
2 55489  43.0041  99.1341 0001185 271.9945  88.0762 15.02539085 47688
STARLINK-5373           
1 55490U 23015AT  23347.65458095  .00000875  00000+0  79806-4 0  9998
2 55490  43.0038  98.2640 0001285 274.8756  85.1939 15.02542968 47522
STARLINK-5364           
1 55491U 23015AU  23347.52547185  .00001184  00000+0  10265-3 0  9991
2 55491  43.0055  73.0129 0001185 269.8345  90.2362 15.02544929 47988
STARLINK-5013           
1 55492U 23015AV  23347.53051421  .00006577  00000+0  50113-3 0  9993
2 55492  43.0033  99.0534 0001044 299.9173  60.1566 15.02562697 47681
STARLINK-5362           
1 55493U 23015AW  23347.52385344  .00000031  00000+0  17343-4 0  9995
2 55493  43.0044  99.0051 0001257 272.8455  87.2243 15.02536511 47685
STARLINK-5344           
1 55494U 23015AX  23347.78642779  .00001342  00000+0  11438-3 0  9996
2 55494  43.0043  97.5329 0001218 276.9117  83.1586 15.02547244 47728
STARLINK-5100           
1 55495U 23015AY  23347.57763976  .00001473  00000+0  12408-3 0  9990
2 55495  43.0055  73.4073 0001144 257.9040 102.1675 15.02545061 47987
STARLINK-5363           
1 55497U 23015BA  23347.65014125  .00001779  00000+0  14668-3 0  9995
2 55497  43.0038  98.2302 0001279 267.8191  92.2505 15.02544103 47703
STARLINK-5365           
1 55498U 23015BB  23347.77421370  .00001946  00000+0  15900-3 0  9999
2 55498  43.0039  97.4397 0001212 273.6148  86.4556 15.02551332 47729
STARLINK-5366           
1 55499U 23015BC  23347.56812486  .00000972  00000+0  86976-4 0  9999
2 55499  43.0037  98.4740 0001138 272.0140  88.0571 15.02544618 48447
STARLINK-5141           
1 55500U 23015BD  23347.51385891  .00000728  00000+0  68923-4 0  9993
2 55500  43.0047  98.9247 0001216 267.1925  92.8778 15.02540618 47684
STARLINK-5367           
1 55501U 23015BE  23347.77199363  .00001236  00000+0  10650-3 0  9997
2 55501  43.0043  97.4225 0001229 271.6869  88.3833 15.02549743 47727
STARLINK-5749           
1 55569U 23020A   23347.80035943  .00003835  00000+0  29873-3 0  9998
2 55569  43.0033 123.7558 0001424 272.6485  87.4194 15.02545115 46036
STARLINK-5737           
1 55570U 23020B   23347.80257003 -.00000349  00000+0 -10762-4 0  9990
2 55570  43.0038 123.7759 0001346 273.3107  86.7581 15.02539642 46038
STARLINK-5739           
1 55571U 23020C   23347.53113962  .00007688  00000+0  58356-3 0  9997
2 55571  43.0026 125.1774 0001772 276.0901  83.9739 15.02537418 45991
STARLINK-5732           
1 55572U 23020D   23347.52668040  .00000311  00000+0  38077-4 0  9994
2 55572  43.0037 125.1456 0001333 272.0445  88.0245 15.02540235 45992
STARLINK-5738           
1 55573U 23020E   23347.72721991  .00000790  00000+0  73528-4 0  9993
2 55573  43.0040 124.0712 0001175 269.4284  90.6424 15.02541025 46026
STARLINK-5747           
1 55574U 23020F   23347.78370718  .00001067  00000+0  94049-4 0  9996
2 55574  43.0036 123.6326 0001198 275.2642  84.8064 15.02545779 46032
STARLINK-5745           
1 55575U 23020G   23347.52335083  .00000191  00000+0  29219-4 0  9999
2 55575  43.0036 125.1191 0001249 272.7535  87.3164 15.02539306 45992
STARLINK-5751           
1 55576U 23020H   23347.56370547  .00000964  00000+0  86417-4 0  9999
2 55576  43.0050  98.5765 0001258 272.3744  87.6954 15.02543108 46308
STARLINK-5752           
1 55577U 23020J   23347.75472484  .00001416  00000+0  12234-3 0  9992
2 55577  43.0040 122.5167 0001198 276.0449  84.0256 15.01729008 46049
STARLINK-5713           
1 55578U 23020K   23347.57873349  .00000887  00000+0  80706-4 0  9999
2 55578  43.0018 124.6730 0001208 267.5970  92.4734 15.02535042 46004
STARLINK-5754           
1 55579U 23020L   23347.69947755  .00001871  00000+0  15353-3 0  9995
2 55579  43.0043 123.8671 0001848 316.0143  44.0552 15.02538473 46024
